BEIJING 1               
1 28890U 05043A   26060.53611476  .00000498  00000+0  10554-3 0  9994
2 28890  98.2709 193.2622 0013340 257.8585 102.1123 14.63450859 84906
HUANJING 1A (HJ-1A)     
1 33320U 08041A   26060.54239008  .00002051  00000+0  25359-3 0  9993
2 33320  97.6619  50.6047 0020229 128.3729 231.9307 14.83688425942447
HUANJING 1B (HJ-1B)     
1 33321U 08041B   26060.53229609  .00001421  00000+0  17892-3 0  9992
2 33321  97.6467  54.0804 0036394 174.3353 185.8280 14.83077315942450
YAOGAN-4                
1 33446U 08061A   26060.35324824  .00001592  00000+0  20238-3 0  9994
2 33446  97.9241 354.7226 0015755  64.3283 295.9555 14.82947234929680
DEIMOS-1                
1 35681U 09041A   26060.47262544  .00000874  00000+0  13671-3 0  9994
2 35681  97.7237 222.4560 0001884 131.5167 228.6205 14.75099006891000
UK-DMC 2                
1 35683U 09041C   26060.56790465  .00001332  00000+0  20144-3 0  9997
2 35683  97.8631 198.2897 0001097  88.2704 271.8631 14.75829797890690
DMC3-FM1                
1 40715U 15032A   26060.57851494  .00000610  00000+0  76380-4 0  9999
2 40715  97.6632 289.8767 0006811  55.4292 304.7566 14.85595894573938
DMC3-FM2                
1 40716U 15032B   26060.53351471  .00001145  00000+0  13823-3 0  9992
2 40716  97.6690 291.3332 0007477  59.8960 300.2996 14.85602084573925
DMC3-FM3                
1 40717U 15032C   26060.55651169  .00000536  00000+0  67997-4 0  9997
2 40717  97.6744 293.0387 0006872  60.5263 299.6637 14.85565011573930
